"empnumber","first","last","display","email","samaccountname","street","city","state","zip","country","phone"
"905074","Marcus","Villegas","Marcus Villegas","Marcus.Villegas@fabrikam.com","905074","222 Bay Street","Lorain","OH","44052","US","5557755953"
"357203","Linda","Kennedy","Linda Kennedy","Linda.Kennedy@fabrikam.com","357203","104 Canterbury Court","Pickerington","OH","43147","US","5558648517"
"598647","Nora","Robinson","Nora Robinson","Nora.Robinson@fabrikam.com","598647","104 Canterbury Court","Pickerington","OH","43147","US","5551160665"
"555822","Marley","Singh","Marley Singh","Marley.Singh@fabrikam.com","555822","322 Grant Avenue","Martinsville","VA","24112","US","5553091631"
"492068","Gauge","Porter","Gauge Porter","Gauge.Porter@fabrikam.com","492068","104 Canterbury Court","Pickerington","OH","43147","US","5558454869"
"923442","Rocco","Fowler","Rocco Fowler","Rocco.Fowler@fabrikam.com","923442","112 Front Street","San Lorenzo","CA","94580","US","5559051100"
"566939","Dexter","Frey","Dexter Frey","Dexter.Frey@fabrikam.com","566939","506 College Street","Flushing","NY","11354","US","5557633069"
"904990","Elianna","Medina","Elianna Medina","Elianna.Medina@fabrikam.com","904990","683 River Street","Opa Locka","FL","33054","US","5555954846"
"633710","Chelsea","Zimmerman","Chelsea Zimmerman","Chelsea.Zimmerman@fabrikam.com","633710","506 College Street","Flushing","NY","11354","US","5554580444"
"729448","Lana","Hunt","Lana Hunt","Lana.Hunt@fabrikam.com","729448","461 Orchard Street","Windsor Mill","MD","21244","US","5556774469"
"346945","Kenzie","Norton","Kenzie Norton","Kenzie.Norton@fabrikam.com","346945","683 River Street","Opa Locka","FL","33054","US","5559546481"
"827309","Lucian","Bonilla","Lucian Bonilla","Lucian.Bonilla@fabrikam.com","827309","222 Bay Street","Lorain","OH","44052","US","5555532587"
"160492","Edgar","Marks","Edgar Marks","Edgar.Marks@fabrikam.com","160492","222 Bay Street","Lorain","OH","44052","US","5553930053"
"408232","Annabella","Gonzalez","Annabella Gonzalez","Annabella.Gonzalez@fabrikam.com","408232","381 Lake Avenue","Ankeny","IA","50023","US","5552465711"
"985384","Jay","Calhoun","Jay Calhoun","Jay.Calhoun@fabrikam.com","985384","994 Fairview Avenue","Lexington","NC","27292","US","5553488426"
"238813","Sebastian","Benson","Sebastian Benson","Sebastian.Benson@fabrikam.com","238813","461 Orchard Street","Windsor Mill","MD","21244","US","5554619689"
"107982","Rosemary","Mcintosh","Rosemary Mcintosh","Rosemary.Mcintosh@fabrikam.com","107982","34 Woodland Avenue","Henrico","VA","23228","US","5556441792"
"988286","Rayan","Oneill","Rayan Oneill","Rayan.Oneill@fabrikam.com","988286","722 Academy Street","Wilkes Barre","PA","18702","US","5551438172"
"577965","Lorenzo","Galloway","Lorenzo Galloway","Lorenzo.Galloway@fabrikam.com","577965","222 Bay Street","Lorain","OH","44052","US","5553723044"
"456686","Dallas","Stein","Dallas Stein","Dallas.Stein@fabrikam.com","456686","722 Academy Street","Wilkes Barre","PA","18702","US","5557679243"
"832213","Jeramiah","Mosley","Jeramiah Mosley","Jeramiah.Mosley@fabrikam.com","832213","859 Riverside Drive","Deland","FL","32720","US","5553842761"
"774132","Kayleigh","Cooper","Kayleigh Cooper","Kayleigh.Cooper@fabrikam.com","774132","506 College Street","Flushing","NY","11354","US","5559561043"
"643662","Giada","Lopez","Giada Lopez","Giada.Lopez@fabrikam.com","643662","994 Fairview Avenue","Lexington","NC","27292","US","5558857205"
"578718","Kendra","Mccoy","Kendra Mccoy","Kendra.Mccoy@fabrikam.com","578718","553 B Street","Freehold","NJ","07728","US","5551438964"
"240476","Cameron","Franco","Cameron Franco","Cameron.Franco@fabrikam.com","240476","501 Church Street North","Danville","VA","24540","US","5556799986"
"132984","Mareli","Callahan","Mareli Callahan","Mareli.Callahan@fabrikam.com","132984","358 5th Street North","West Chester","PA","19380","US","5556410862"
"757822","Emerson","Orozco","Emerson Orozco","Emerson.Orozco@fabrikam.com","757822","501 Church Street North","Danville","VA","24540","US","5559779694"
"234456","Macie","Nelson","Macie Nelson","Macie.Nelson@fabrikam.com","234456","994 Fairview Avenue","Lexington","NC","27292","US","5559269407"
"641836","Kennedi","Avery","Kennedi Avery","Kennedi.Avery@fabrikam.com","641836","34 Woodland Avenue","Henrico","VA","23228","US","5553932945"
"275001","Elvis","Bernard","Elvis Bernard","Elvis.Bernard@fabrikam.com","275001","358 5th Street North","West Chester","PA","19380","US","5557302092"
"911744","Zoie","Richards","Zoie Richards","Zoie.Richards@fabrikam.com","911744","683 River Street","Opa Locka","FL","33054","US","5557300914"
"458465","Bo","Richard","Bo Richard","Bo.Richard@fabrikam.com","458465","994 Fairview Avenue","Lexington","NC","27292","US","5558919477"
"190408","Alison","Kirby","Alison Kirby","Alison.Kirby@fabrikam.com","190408","683 River Street","Opa Locka","FL","33054","US","5554385901"
"739201","Nikhil","Stanley","Nikhil Stanley","Nikhil.Stanley@fabrikam.com","739201","506 College Street","Flushing","NY","11354","US","5553920073"
"783805","Yazmin","Christian","Yazmin Christian","Yazmin.Christian@fabrikam.com","783805","322 Grant Avenue","Martinsville","VA","24112","US","5551812549"
"291552","Rachael","Armstrong","Rachael Armstrong","Rachael.Armstrong@fabrikam.com","291552","381 Lake Avenue","Ankeny","IA","50023","US","5559038607"
"420069","Deandre","Cantrell","Deandre Cantrell","Deandre.Cantrell@fabrikam.com","420069","104 Canterbury Court","Pickerington","OH","43147","US","5553219385"
"471774","Clarence","Ibarra","Clarence Ibarra","Clarence.Ibarra@fabrikam.com","471774","501 Church Street North","Danville","VA","24540","US","5559364175"
"647597","Amare","Johnson","Amare Johnson","Amare.Johnson@fabrikam.com","647597","64 Circle Drive","New Britain","CT","06051","US","5552758889"
"636183","Randy","Dawson","Randy Dawson","Randy.Dawson@fabrikam.com","636183","104 Canterbury Court","Pickerington","OH","43147","US","5555307198"
"519698","Natalie","Marsh","Natalie Marsh","Natalie.Marsh@fabrikam.com","519698","358 5th Street North","West Chester","PA","19380","US","5554261211"
"651786","Alan","Murillo","Alan Murillo","Alan.Murillo@fabrikam.com","651786","34 Woodland Avenue","Henrico","VA","23228","US","5557365457"
"499511","Mariyah","Mcfarland","Mariyah Mcfarland","Mariyah.Mcfarland@fabrikam.com","499511","64 Circle Drive","New Britain","CT","06051","US","5551523256"
"435006","Justine","Campos","Justine Campos","Justine.Campos@fabrikam.com","435006","34 Woodland Avenue","Henrico","VA","23228","US","5554033843"
"203190","Francis","Norman","Francis Norman","Francis.Norman@fabrikam.com","203190","683 River Street","Opa Locka","FL","33054","US","5553690726"
"912615","Terrell","Buck","Terrell Buck","Terrell.Buck@fabrikam.com","912615","506 College Street","Flushing","NY","11354","US","5559564147"
"393116","Yareli","Salinas","Yareli Salinas","Yareli.Salinas@fabrikam.com","393116","64 Circle Drive","New Britain","CT","06051","US","5553950598"
"659668","Zariah","Herman","Zariah Herman","Zariah.Herman@fabrikam.com","659668","722 Academy Street","Wilkes Barre","PA","18702","US","5553013766"
"252533","Marely","May","Marely May","Marely.May@fabrikam.com","252533","64 Circle Drive","New Britain","CT","06051","US","5553610198"
"857667","Arianna","Zamora","Arianna Zamora","Arianna.Zamora@fabrikam.com","857667","112 Front Street","San Lorenzo","CA","94580","US","5552290272"
"689683","Kiara","Forbes","Kiara Forbes","Kiara.Forbes@fabrikam.com","689683","722 Academy Street","Wilkes Barre","PA","18702","US","5553160636"
"509529","Izabelle","Reyes","Izabelle Reyes","Izabelle.Reyes@fabrikam.com","509529","683 River Street","Opa Locka","FL","33054","US","5553116816"
"895060","Courtney","Mills","Courtney Mills","Courtney.Mills@fabrikam.com","895060","211 Sycamore Lane","Hanover Park","IL","60133","US","5553953456"
"878425","Layla","Keith","Layla Keith","Layla.Keith@fabrikam.com","878425","211 Sycamore Lane","Hanover Park","IL","60133","US","5559630869"
"902469","Deon","Jackson","Deon Jackson","Deon.Jackson@fabrikam.com","902469","859 Riverside Drive","Deland","FL","32720","US","5552072625"
"397994","Alexia","Blackburn","Alexia Blackburn","Alexia.Blackburn@fabrikam.com","397994","501 Church Street North","Danville","VA","24540","US","5553311078"
"117336","Ricardo","Wilcox","Ricardo Wilcox","Ricardo.Wilcox@fabrikam.com","117336","316 Clinton Street","Gallatin","TN","37066","US","5557546294"
"269002","Jacquelyn","Hurst","Jacquelyn Hurst","Jacquelyn.Hurst@fabrikam.com","269002","322 Grant Avenue","Martinsville","VA","24112","US","5552146817"
"262234","Kian","Ferguson","Kian Ferguson","Kian.Ferguson@fabrikam.com","262234","683 River Street","Opa Locka","FL","33054","US","5556006785"
"942569","Amara","Rosales","Amara Rosales","Amara.Rosales@fabrikam.com","942569","506 College Street","Flushing","NY","11354","US","5559812917"
"520182","Jamir","Beltran","Jamir Beltran","Jamir.Beltran@fabrikam.com","520182","859 Riverside Drive","Deland","FL","32720","US","5554623883"
"131192","Ricky","Kaufman","Ricky Kaufman","Ricky.Kaufman@fabrikam.com","131192","506 College Street","Flushing","NY","11354","US","5552573638"
"843306","Clara","Vincent","Clara Vincent","Clara.Vincent@fabrikam.com","843306","722 Academy Street","Wilkes Barre","PA","18702","US","5555861444"
"422249","Caden","Spence","Caden Spence","Caden.Spence@fabrikam.com","422249","64 Circle Drive","New Britain","CT","06051","US","5558750509"
"990838","Miriam","Velez","Miriam Velez","Miriam.Velez@fabrikam.com","990838","553 B Street","Freehold","NJ","07728","US","5557451087"
"784982","Jamarion","Weber","Jamarion Weber","Jamarion.Weber@fabrikam.com","784982","506 College Street","Flushing","NY","11354","US","5555761670"
"559026","Trace","Parrish","Trace Parrish","Trace.Parrish@fabrikam.com","559026","733 Church Street South","Revere","MA","02151","US","5556267868"
"915028","Arnav","Odom","Arnav Odom","Arnav.Odom@fabrikam.com","915028","859 Riverside Drive","Deland","FL","32720","US","5559506173"
"334810","Axel","Moses","Axel Moses","Axel.Moses@fabrikam.com","334810","104 Canterbury Court","Pickerington","OH","43147","US","5554803174"
"352905","Teresa","Newman","Teresa Newman","Teresa.Newman@fabrikam.com","352905","722 Academy Street","Wilkes Barre","PA","18702","US","5558496502"
"121352","Alonso","Rose","Alonso Rose","Alonso.Rose@fabrikam.com","121352","994 Fairview Avenue","Lexington","NC","27292","US","5553484434"
"973000","Cody","Mercer","Cody Mercer","Cody.Mercer@fabrikam.com","973000","859 Riverside Drive","Deland","FL","32720","US","5559246078"
"644245","Holden","Yoder","Holden Yoder","Holden.Yoder@fabrikam.com","644245","316 Clinton Street","Gallatin","TN","37066","US","5559832895"
"974898","Yael","Powell","Yael Powell","Yael.Powell@fabrikam.com","974898","211 Sycamore Lane","Hanover Park","IL","60133","US","5558916042"
"653428","Liberty","Knox","Liberty Knox","Liberty.Knox@fabrikam.com","653428","722 Academy Street","Wilkes Barre","PA","18702","US","5559441979"
"357824","Kadence","Nichols","Kadence Nichols","Kadence.Nichols@fabrikam.com","357824","358 5th Street North","West Chester","PA","19380","US","5559732368"
"603454","Taryn","Graham","Taryn Graham","Taryn.Graham@fabrikam.com","603454","722 Academy Street","Wilkes Barre","PA","18702","US","5552300480"
"329183","Taniyah","Cuevas","Taniyah Cuevas","Taniyah.Cuevas@fabrikam.com","329183","381 Lake Avenue","Ankeny","IA","50023","US","5554443147"
"408051","Savannah","Cantu","Savannah Cantu","Savannah.Cantu@fabrikam.com","408051","222 Bay Street","Lorain","OH","44052","US","5556370402"
"716881","Anya","Weiss","Anya Weiss","Anya.Weiss@fabrikam.com","716881","733 Church Street South","Revere","MA","02151","US","5559485555"
"286918","Jaida","Daniel","Jaida Daniel","Jaida.Daniel@fabrikam.com","286918","322 Grant Avenue","Martinsville","VA","24112","US","5554477408"
"299306","Malaki","Malone","Malaki Malone","Malaki.Malone@fabrikam.com","299306","222 Bay Street","Lorain","OH","44052","US","5552318780"
"814262","Tabitha","Dyer","Tabitha Dyer","Tabitha.Dyer@fabrikam.com","814262","553 B Street","Freehold","NJ","07728","US","5553246925"
"945003","Makaila","Henson","Makaila Henson","Makaila.Henson@fabrikam.com","945003","322 Grant Avenue","Martinsville","VA","24112","US","5556479416"
"758811","Hailey","Robles","Hailey Robles","Hailey.Robles@fabrikam.com","758811","316 Clinton Street","Gallatin","TN","37066","US","5553520690"
"590625","Prince","Mendoza","Prince Mendoza","Prince.Mendoza@fabrikam.com","590625","733 Church Street South","Revere","MA","02151","US","5554038003"
"181494","Jarrett","Farrell","Jarrett Farrell","Jarrett.Farrell@fabrikam.com","181494","461 Orchard Street","Windsor Mill","MD","21244","US","5557122787"
"549887","River","Rice","River Rice","River.Rice@fabrikam.com","549887","64 Circle Drive","New Britain","CT","06051","US","5553762393"
"923770","Ally","Mcdowell","Ally Mcdowell","Ally.Mcdowell@fabrikam.com","923770","653 Henry Street","Highland Park","IL","60035","US","5551335488"
"919843","Lesly","Holden","Lesly Holden","Lesly.Holden@fabrikam.com","919843","553 B Street","Freehold","NJ","07728","US","5558888355"
"941629","Jett","Boone","Jett Boone","Jett.Boone@fabrikam.com","941629","64 Circle Drive","New Britain","CT","06051","US","5558663307"
"545208","Brynn","Warner","Brynn Warner","Brynn.Warner@fabrikam.com","545208","64 Circle Drive","New Britain","CT","06051","US","5555362274"
"954167","Ignacio","Camacho","Ignacio Camacho","Ignacio.Camacho@fabrikam.com","954167","34 Woodland Avenue","Henrico","VA","23228","US","5558933037"
"858037","George","Simon","George Simon","George.Simon@fabrikam.com","858037","358 5th Street North","West Chester","PA","19380","US","5552340809"
"448239","Danika","Miles","Danika Miles","Danika.Miles@fabrikam.com","448239","501 Church Street North","Danville","VA","24540","US","5557478244"
"709924","Vivian","Boyer","Vivian Boyer","Vivian.Boyer@fabrikam.com","709924","34 Woodland Avenue","Henrico","VA","23228","US","5552851231"
"726980","Kaylin","Warren","Kaylin Warren","Kaylin.Warren@fabrikam.com","726980","112 Front Street","San Lorenzo","CA","94580","US","5555560671"
"251430","Parker","Howe","Parker Howe","Parker.Howe@fabrikam.com","251430","112 Front Street","San Lorenzo","CA","94580","US","5556925449"
"350992","Catherine","Woodard","Catherine Woodard","Catherine.Woodard@fabrikam.com","350992","994 Fairview Avenue","Lexington","NC","27292","US","5556430594"
"656172","Gilbert","Wade","Gilbert Wade","Gilbert.Wade@fabrikam.com","656172","653 Henry Street","Highland Park","IL","60035","US","5555654035"
"283642","Shannon","Becker","Shannon Becker","Shannon.Becker@fabrikam.com","283642","112 Front Street","San Lorenzo","CA","94580","US","5552513530"
"730825","Ada","Cisneros","Ada Cisneros","Ada.Cisneros@fabrikam.com","730825","653 Henry Street","Highland Park","IL","60035","US","5555454802"
"780945","Dakota","Gilbert","Dakota Gilbert","Dakota.Gilbert@fabrikam.com","780945","506 College Street","Flushing","NY","11354","US","5552055118"
"689236","Riya","Taylor","Riya Taylor","Riya.Taylor@fabrikam.com","689236","222 Bay Street","Lorain","OH","44052","US","5556441787"
"757633","Karissa","Carr","Karissa Carr","Karissa.Carr@fabrikam.com","757633","381 Lake Avenue","Ankeny","IA","50023","US","5556662310"
"237867","Shyann","Giles","Shyann Giles","Shyann.Giles@fabrikam.com","237867","461 Orchard Street","Windsor Mill","MD","21244","US","5554373027"
"101477","Alexa","Mccullough","Alexa Mccullough","Alexa.Mccullough@fabrikam.com","101477","506 College Street","Flushing","NY","11354","US","5557716979"
"941188","Irvin","Leblanc","Irvin Leblanc","Irvin.Leblanc@fabrikam.com","941188","34 Woodland Avenue","Henrico","VA","23228","US","5552033089"
"750472","Denise","Cardenas","Denise Cardenas","Denise.Cardenas@fabrikam.com","750472","461 Orchard Street","Windsor Mill","MD","21244","US","5558616192"
"914525","Kyleigh","Gibson","Kyleigh Gibson","Kyleigh.Gibson@fabrikam.com","914525","653 Henry Street","Highland Park","IL","60035","US","5556924487"
"905485","Scott","Burgess","Scott Burgess","Scott.Burgess@fabrikam.com","905485","683 River Street","Opa Locka","FL","33054","US","5557932050"
"975781","Cloe","Pratt","Cloe Pratt","Cloe.Pratt@fabrikam.com","975781","211 Sycamore Lane","Hanover Park","IL","60133","US","5555794893"
"536069","Jean","Keller","Jean Keller","Jean.Keller@fabrikam.com","536069","358 5th Street North","West Chester","PA","19380","US","5556877612"
"891476","Kyla","Lin","Kyla Lin","Kyla.Lin@fabrikam.com","891476","381 Lake Avenue","Ankeny","IA","50023","US","5558495356"
"148785","Carleigh","Harper","Carleigh Harper","Carleigh.Harper@fabrikam.com","148785","322 Grant Avenue","Martinsville","VA","24112","US","5559952086"
"727585","Dereon","Santiago","Dereon Santiago","Dereon.Santiago@fabrikam.com","727585","859 Riverside Drive","Deland","FL","32720","US","5559036613"
"250789","Ben","Duncan","Ben Duncan","Ben.Duncan@fabrikam.com","250789","104 Canterbury Court","Pickerington","OH","43147","US","5552244359"
"101074","Maximilian","Choi","Maximilian Choi","Maximilian.Choi@fabrikam.com","101074","506 College Street","Flushing","NY","11354","US","5554382012"
"682007","Kristen","Kemp","Kristen Kemp","Kristen.Kemp@fabrikam.com","682007","859 Riverside Drive","Deland","FL","32720","US","5551742626"
"482830","Miah","Rich","Miah Rich","Miah.Rich@fabrikam.com","482830","653 Henry Street","Highland Park","IL","60035","US","5559024363"
"270850","Kymani","Mcmahon","Kymani Mcmahon","Kymani.Mcmahon@fabrikam.com","270850","653 Henry Street","Highland Park","IL","60035","US","5557610843"
"220572","Lee","Cannon","Lee Cannon","Lee.Cannon@fabrikam.com","220572","104 Canterbury Court","Pickerington","OH","43147","US","5553960228"
"521462","Juliet","Haas","Juliet Haas","Juliet.Haas@fabrikam.com","521462","104 Canterbury Court","Pickerington","OH","43147","US","5556090075"
"829115","Guillermo","Melton","Guillermo Melton","Guillermo.Melton@fabrikam.com","829115","381 Lake Avenue","Ankeny","IA","50023","US","5551430644"
"616674","Aniyah","Davies","Aniyah Davies","Aniyah.Davies@fabrikam.com","616674","461 Orchard Street","Windsor Mill","MD","21244","US","5555429467"
"442362","Arely","Macias","Arely Macias","Arely.Macias@fabrikam.com","442362","683 River Street","Opa Locka","FL","33054","US","5553783409"
"377525","Byron","Gardner","Byron Gardner","Byron.Gardner@fabrikam.com","377525","64 Circle Drive","New Britain","CT","06051","US","5552896373"
"135975","Alina","Coffey","Alina Coffey","Alina.Coffey@fabrikam.com","135975","104 Canterbury Court","Pickerington","OH","43147","US","5551636153"
"504757","Tristan","Bond","Tristan Bond","Tristan.Bond@fabrikam.com","504757","722 Academy Street","Wilkes Barre","PA","18702","US","5557239616"
"308514","Maribel","Ho","Maribel Ho","Maribel.Ho@fabrikam.com","308514","683 River Street","Opa Locka","FL","33054","US","5554309160"
"206006","Phoebe","Braun","Phoebe Braun","Phoebe.Braun@fabrikam.com","206006","506 College Street","Flushing","NY","11354","US","5551454851"
"834149","Trent","Bridges","Trent Bridges","Trent.Bridges@fabrikam.com","834149","211 Sycamore Lane","Hanover Park","IL","60133","US","5559735485"
"716773","Evelin","Travis","Evelin Travis","Evelin.Travis@fabrikam.com","716773","381 Lake Avenue","Ankeny","IA","50023","US","5559219869"
"146074","Keegan","Orr","Keegan Orr","Keegan.Orr@fabrikam.com","146074","553 B Street","Freehold","NJ","07728","US","5553778135"
"189254","Sanaa","Mora","Sanaa Mora","Sanaa.Mora@fabrikam.com","189254","34 Woodland Avenue","Henrico","VA","23228","US","5554277321"
"544724","Cherish","Charles","Cherish Charles","Cherish.Charles@fabrikam.com","544724","322 Grant Avenue","Martinsville","VA","24112","US","5553951964"
"392874","Davian","Watson","Davian Watson","Davian.Watson@fabrikam.com","392874","733 Church Street South","Revere","MA","02151","US","5559593509"
"413830","Mia","Bruce","Mia Bruce","Mia.Bruce@fabrikam.com","413830","34 Woodland Avenue","Henrico","VA","23228","US","5556244180"
"703258","Izaiah","Arroyo","Izaiah Arroyo","Izaiah.Arroyo@fabrikam.com","703258","653 Henry Street","Highland Park","IL","60035","US","5556620333"
"314812","Alex","Copeland","Alex Copeland","Alex.Copeland@fabrikam.com","314812","112 Front Street","San Lorenzo","CA","94580","US","5552566620"
"111862","Kathryn","Stuart","Kathryn Stuart","Kathryn.Stuart@fabrikam.com","111862","358 5th Street North","West Chester","PA","19380","US","5555614349"
"746731","Madelynn","Andrade","Madelynn Andrade","Madelynn.Andrade@fabrikam.com","746731","381 Lake Avenue","Ankeny","IA","50023","US","5552931823"
"118445","Angie","Rogers","Angie Rogers","Angie.Rogers@fabrikam.com","118445","358 5th Street North","West Chester","PA","19380","US","5558713720"
"469037","Haleigh","Wallace","Haleigh Wallace","Haleigh.Wallace@fabrikam.com","469037","501 Church Street North","Danville","VA","24540","US","5552911938"
"650934","Emery","Banks","Emery Banks","Emery.Banks@fabrikam.com","650934","358 5th Street North","West Chester","PA","19380","US","5551295551"
"926767","Karma","Mccormick","Karma Mccormick","Karma.Mccormick@fabrikam.com","926767","722 Academy Street","Wilkes Barre","PA","18702","US","5557705600"
"984707","Kyler","Santana","Kyler Santana","Kyler.Santana@fabrikam.com","984707","859 Riverside Drive","Deland","FL","32720","US","5554310674"
"829696","Landon","Sawyer","Landon Sawyer","Landon.Sawyer@fabrikam.com","829696","381 Lake Avenue","Ankeny","IA","50023","US","5559628279"
"119722","Cecelia","Espinoza","Cecelia Espinoza","Cecelia.Espinoza@fabrikam.com","119722","994 Fairview Avenue","Lexington","NC","27292","US","5558992505"
"782330","Vincent","Sheppard","Vincent Sheppard","Vincent.Sheppard@fabrikam.com","782330","358 5th Street North","West Chester","PA","19380","US","5559644233"
"573309","Heather","Vargas","Heather Vargas","Heather.Vargas@fabrikam.com","573309","506 College Street","Flushing","NY","11354","US","5553192326"
"118133","Yair","Crane","Yair Crane","Yair.Crane@fabrikam.com","118133","553 B Street","Freehold","NJ","07728","US","5551142114"
"767893","Larissa","Cortez","Larissa Cortez","Larissa.Cortez@fabrikam.com","767893","506 College Street","Flushing","NY","11354","US","5559741862"
"699699","Nick","Key","Nick Key","Nick.Key@fabrikam.com","699699","653 Henry Street","Highland Park","IL","60035","US","5559856412"
"893398","Jasiah","Mercado","Jasiah Mercado","Jasiah.Mercado@fabrikam.com","893398","34 Woodland Avenue","Henrico","VA","23228","US","5553370522"
"680505","Magdalena","Holloway","Magdalena Holloway","Magdalena.Holloway@fabrikam.com","680505","112 Front Street","San Lorenzo","CA","94580","US","5557448558"
"337599","Carmelo","Carrillo","Carmelo Carrillo","Carmelo.Carrillo@fabrikam.com","337599","112 Front Street","San Lorenzo","CA","94580","US","5554882122"
"528989","Beckham","Irwin","Beckham Irwin","Beckham.Irwin@fabrikam.com","528989","211 Sycamore Lane","Hanover Park","IL","60133","US","5558884082"
"406996","Charlee","Wiley","Charlee Wiley","Charlee.Wiley@fabrikam.com","406996","358 5th Street North","West Chester","PA","19380","US","5558163535"
"635584","Ulises","Gilmore","Ulises Gilmore","Ulises.Gilmore@fabrikam.com","635584","733 Church Street South","Revere","MA","02151","US","5556891546"
"830335","Martin","Roach","Martin Roach","Martin.Roach@fabrikam.com","830335","553 B Street","Freehold","NJ","07728","US","5554212933"
"803914","Zachary","Alvarez","Zachary Alvarez","Zachary.Alvarez@fabrikam.com","803914","683 River Street","Opa Locka","FL","33054","US","5552853487"
"164450","Donna","Holland","Donna Holland","Donna.Holland@fabrikam.com","164450","222 Bay Street","Lorain","OH","44052","US","5558124243"
"587865","Johnny","Davidson","Johnny Davidson","Johnny.Davidson@fabrikam.com","587865","501 Church Street North","Danville","VA","24540","US","5557496674"
"786629","Logan","Hayes","Logan Hayes","Logan.Hayes@fabrikam.com","786629","994 Fairview Avenue","Lexington","NC","27292","US","5559383975"
"807802","Keith","Coleman","Keith Coleman","Keith.Coleman@fabrikam.com","807802","733 Church Street South","Revere","MA","02151","US","5551190093"
"657869","Kody","Reid","Kody Reid","Kody.Reid@fabrikam.com","657869","64 Circle Drive","New Britain","CT","06051","US","5559743060"
"957675","Abigail","Hatfield","Abigail Hatfield","Abigail.Hatfield@fabrikam.com","957675","211 Sycamore Lane","Hanover Park","IL","60133","US","5557544219"
"987701","Isla","Fleming","Isla Fleming","Isla.Fleming@fabrikam.com","987701","64 Circle Drive","New Britain","CT","06051","US","5554175177"
"169485","Gabriela","Padilla","Gabriela Padilla","Gabriela.Padilla@fabrikam.com","169485","461 Orchard Street","Windsor Mill","MD","21244","US","5555091522"
"460949","Kasey","Pace","Kasey Pace","Kasey.Pace@fabrikam.com","460949","653 Henry Street","Highland Park","IL","60035","US","5551106893"
"818704","Xiomara","Hooper","Xiomara Hooper","Xiomara.Hooper@fabrikam.com","818704","683 River Street","Opa Locka","FL","33054","US","5559471110"
"266478","Alisson","Barber","Alisson Barber","Alisson.Barber@fabrikam.com","266478","733 Church Street South","Revere","MA","02151","US","5552205485"
"961191","Ashlyn","Morales","Ashlyn Morales","Ashlyn.Morales@fabrikam.com","961191","506 College Street","Flushing","NY","11354","US","5555546358"
"155325","America","Guerrero","America Guerrero","America.Guerrero@fabrikam.com","155325","733 Church Street South","Revere","MA","02151","US","5552659940"
"553038","Litzy","Martinez","Litzy Martinez","Litzy.Martinez@fabrikam.com","553038","322 Grant Avenue","Martinsville","VA","24112","US","5556099057"
"846311","Libby","Golden","Libby Golden","Libby.Golden@fabrikam.com","846311","501 Church Street North","Danville","VA","24540","US","5554797914"
"387421","Derrick","Arnold","Derrick Arnold","Derrick.Arnold@fabrikam.com","387421","104 Canterbury Court","Pickerington","OH","43147","US","5558403372"
"710027","Daniela","Gillespie","Daniela Gillespie","Daniela.Gillespie@fabrikam.com","710027","104 Canterbury Court","Pickerington","OH","43147","US","5552222026"
"546111","Elian","Hobbs","Elian Hobbs","Elian.Hobbs@fabrikam.com","546111","653 Henry Street","Highland Park","IL","60035","US","5555857620"
"656700","Francesca","Ryan","Francesca Ryan","Francesca.Ryan@fabrikam.com","656700","501 Church Street North","Danville","VA","24540","US","5554709348"
"112230","Kaydence","Vega","Kaydence Vega","Kaydence.Vega@fabrikam.com","112230","64 Circle Drive","New Britain","CT","06051","US","5553225145"
"290319","Ainsley","Oconnor","Ainsley Oconnor","Ainsley.Oconnor@fabrikam.com","290319","461 Orchard Street","Windsor Mill","MD","21244","US","5557948765"
"988494","Essence","Rojas","Essence Rojas","Essence.Rojas@fabrikam.com","988494","322 Grant Avenue","Martinsville","VA","24112","US","5553489950"
"831605","Tristian","Cook","Tristian Cook","Tristian.Cook@fabrikam.com","831605","683 River Street","Opa Locka","FL","33054","US","5554261766"
"583185","Hayden","Turner","Hayden Turner","Hayden.Turner@fabrikam.com","583185","112 Front Street","San Lorenzo","CA","94580","US","5557047454"
"187365","Hezekiah","Patterson","Hezekiah Patterson","Hezekiah.Patterson@fabrikam.com","187365","112 Front Street","San Lorenzo","CA","94580","US","5555608939"
"393510","Kaitlynn","Mckay","Kaitlynn Mckay","Kaitlynn.Mckay@fabrikam.com","393510","733 Church Street South","Revere","MA","02151","US","5552543266"
"220173","Esmeralda","Saunders","Esmeralda Saunders","Esmeralda.Saunders@fabrikam.com","220173","683 River Street","Opa Locka","FL","33054","US","5554510028"
"882234","Scarlett","Chase","Scarlett Chase","Scarlett.Chase@fabrikam.com","882234","222 Bay Street","Lorain","OH","44052","US","5554872887"
"574297","Oscar","Petersen","Oscar Petersen","Oscar.Petersen@fabrikam.com","574297","64 Circle Drive","New Britain","CT","06051","US","5554635668"
"550434","Abraham","Merritt","Abraham Merritt","Abraham.Merritt@fabrikam.com","550434","34 Woodland Avenue","Henrico","VA","23228","US","5559515062"
"167686","Serenity","Durham","Serenity Durham","Serenity.Durham@fabrikam.com","167686","64 Circle Drive","New Britain","CT","06051","US","5556582140"
"852382","Alissa","York","Alissa York","Alissa.York@fabrikam.com","852382","211 Sycamore Lane","Hanover Park","IL","60133","US","5553812089"
"483965","Jeremy","Sellers","Jeremy Sellers","Jeremy.Sellers@fabrikam.com","483965","501 Church Street North","Danville","VA","24540","US","5558211853"
"565400","Briana","Fields","Briana Fields","Briana.Fields@fabrikam.com","565400","358 5th Street North","West Chester","PA","19380","US","5553547403"
"657258","Giovanny","Good","Giovanny Good","Giovanny.Good@fabrikam.com","657258","112 Front Street","San Lorenzo","CA","94580","US","5553663168"
"755893","Geovanni","Simmons","Geovanni Simmons","Geovanni.Simmons@fabrikam.com","755893","104 Canterbury Court","Pickerington","OH","43147","US","5554755260"
"501251","Octavio","Neal","Octavio Neal","Octavio.Neal@fabrikam.com","501251","316 Clinton Street","Gallatin","TN","37066","US","5555885284"
"653183","Kadyn","Soto","Kadyn Soto","Kadyn.Soto@fabrikam.com","653183","506 College Street","Flushing","NY","11354","US","5559304921"
"748741","Kael","Cordova","Kael Cordova","Kael.Cordova@fabrikam.com","748741","859 Riverside Drive","Deland","FL","32720","US","5551998175"
"490238","Rayne","Shepard","Rayne Shepard","Rayne.Shepard@fabrikam.com","490238","316 Clinton Street","Gallatin","TN","37066","US","5551034377"
"559858","Quentin","Owens","Quentin Owens","Quentin.Owens@fabrikam.com","559858","506 College Street","Flushing","NY","11354","US","5553280494"
"208679","Adam","Carlson","Adam Carlson","Adam.Carlson@fabrikam.com","208679","501 Church Street North","Danville","VA","24540","US","5555446785"
"490175","Davis","Stafford","Davis Stafford","Davis.Stafford@fabrikam.com","490175","358 5th Street North","West Chester","PA","19380","US","5557587015"
"203420","Morgan","Curry","Morgan Curry","Morgan.Curry@fabrikam.com","203420","733 Church Street South","Revere","MA","02151","US","5555325576"
"842911","Jaylene","Montoya","Jaylene Montoya","Jaylene.Montoya@fabrikam.com","842911","112 Front Street","San Lorenzo","CA","94580","US","5556852227"
"533961","Elle","Barron","Elle Barron","Elle.Barron@fabrikam.com","533961","358 5th Street North","West Chester","PA","19380","US","5556676940"
"580831","Chasity","Henderson","Chasity Henderson","Chasity.Henderson@fabrikam.com","580831","506 College Street","Flushing","NY","11354","US","5557677498"
"903348","Rose","Cline","Rose Cline","Rose.Cline@fabrikam.com","903348","104 Canterbury Court","Pickerington","OH","43147","US","5552291525"
"674026","Peyton","Watts","Peyton Watts","Peyton.Watts@fabrikam.com","674026","64 Circle Drive","New Britain","CT","06051","US","5552713154"
"837033","Emily","Sanders","Emily Sanders","Emily.Sanders@fabrikam.com","837033","381 Lake Avenue","Ankeny","IA","50023","US","5553616056"
"402728","Angelina","Potter","Angelina Potter","Angelina.Potter@fabrikam.com","402728","381 Lake Avenue","Ankeny","IA","50023","US","5553250973"
"159561","Eliana","Harvey","Eliana Harvey","Eliana.Harvey@fabrikam.com","159561","553 B Street","Freehold","NJ","07728","US","5553598671"
"170854","Jenna","Nicholson","Jenna Nicholson","Jenna.Nicholson@fabrikam.com","170854","501 Church Street North","Danville","VA","24540","US","5555950548"
"688648","Samir","Webb","Samir Webb","Samir.Webb@fabrikam.com","688648","653 Henry Street","Highland Park","IL","60035","US","5559935940"
"105583","Andres","Price","Andres Price","Andres.Price@fabrikam.com","105583","553 B Street","Freehold","NJ","07728","US","5555668846"
"266373","Alexis","Chan","Alexis Chan","Alexis.Chan@fabrikam.com","266373","211 Sycamore Lane","Hanover Park","IL","60133","US","5555066387"
"312632","June","Fisher","June Fisher","June.Fisher@fabrikam.com","312632","64 Circle Drive","New Britain","CT","06051","US","5555833411"
"212509","Cayden","Booth","Cayden Booth","Cayden.Booth@fabrikam.com","212509","859 Riverside Drive","Deland","FL","32720","US","5555397167"
"602317","Liana","Brock","Liana Brock","Liana.Brock@fabrikam.com","602317","994 Fairview Avenue","Lexington","NC","27292","US","5556747324"
"318336","Addison","Wilkinson","Addison Wilkinson","Addison.Wilkinson@fabrikam.com","318336","358 5th Street North","West Chester","PA","19380","US","5558233792"
"900607","Alvin","Washington","Alvin Washington","Alvin.Washington@fabrikam.com","900607","104 Canterbury Court","Pickerington","OH","43147","US","5551660229"
"908743","Bethany","Prince","Bethany Prince","Bethany.Prince@fabrikam.com","908743","64 Circle Drive","New Britain","CT","06051","US","5557001515"
"810466","Trevor","Novak","Trevor Novak","Trevor.Novak@fabrikam.com","810466","316 Clinton Street","Gallatin","TN","37066","US","5555123637"
"371553","Cole","Hines","Cole Hines","Cole.Hines@fabrikam.com","371553","461 Orchard Street","Windsor Mill","MD","21244","US","5558161474"
"440036","Samson","Rollins","Samson Rollins","Samson.Rollins@fabrikam.com","440036","34 Woodland Avenue","Henrico","VA","23228","US","5555193127"
"622960","Milo","Williams","Milo Williams","Milo.Williams@fabrikam.com","622960","683 River Street","Opa Locka","FL","33054","US","5555010652"
"134445","Zackery","Mccarty","Zackery Mccarty","Zackery.Mccarty@fabrikam.com","134445","64 Circle Drive","New Britain","CT","06051","US","5555980596"
"800739","Edith","Wheeler","Edith Wheeler","Edith.Wheeler@fabrikam.com","800739","722 Academy Street","Wilkes Barre","PA","18702","US","5553496329"
"222428","Emmalee","Ball","Emmalee Ball","Emmalee.Ball@fabrikam.com","222428","104 Canterbury Court","Pickerington","OH","43147","US","5551278023"
"654574","Tyshawn","Conner","Tyshawn Conner","Tyshawn.Conner@fabrikam.com","654574","64 Circle Drive","New Britain","CT","06051","US","5552524666"
"118770","Guadalupe","Bautista","Guadalupe Bautista","Guadalupe.Bautista@fabrikam.com","118770","64 Circle Drive","New Britain","CT","06051","US","5553944428"
"896519","Raquel","Acosta","Raquel Acosta","Raquel.Acosta@fabrikam.com","896519","112 Front Street","San Lorenzo","CA","94580","US","5554257086"
"383170","Ariella","Mason","Ariella Mason","Ariella.Mason@fabrikam.com","383170","64 Circle Drive","New Britain","CT","06051","US","5556132639"
"806497","Kathy","Nash","Kathy Nash","Kathy.Nash@fabrikam.com","806497","859 Riverside Drive","Deland","FL","32720","US","5558224213"
"838092","Azul","Whitaker","Azul Whitaker","Azul.Whitaker@fabrikam.com","838092","722 Academy Street","Wilkes Barre","PA","18702","US","5553477139"
"671502","Aleena","English","Aleena English","Aleena.English@fabrikam.com","671502","211 Sycamore Lane","Hanover Park","IL","60133","US","5555303223"
"943271","Katie","Fernandez","Katie Fernandez","Katie.Fernandez@fabrikam.com","943271","316 Clinton Street","Gallatin","TN","37066","US","5552042837"
"523478","Saniyah","Carter","Saniyah Carter","Saniyah.Carter@fabrikam.com","523478","683 River Street","Opa Locka","FL","33054","US","5551029686"
"995569","Jaxon","Lynn","Jaxon Lynn","Jaxon.Lynn@fabrikam.com","995569","222 Bay Street","Lorain","OH","44052","US","5558807772"
"649845","Sterling","Kelley","Sterling Kelley","Sterling.Kelley@fabrikam.com","649845","506 College Street","Flushing","NY","11354","US","5557014523"
"508024","Isabela","Barton","Isabela Barton","Isabela.Barton@fabrikam.com","508024","211 Sycamore Lane","Hanover Park","IL","60133","US","5559867746"
"769904","Jeffery","Alexander","Jeffery Alexander","Jeffery.Alexander@fabrikam.com","769904","34 Woodland Avenue","Henrico","VA","23228","US","5555466519"
"142909","Halle","Waller","Halle Waller","Halle.Waller@fabrikam.com","142909","506 College Street","Flushing","NY","11354","US","5558890435"
"826991","Armani","Curtis","Armani Curtis","Armani.Curtis@fabrikam.com","826991","461 Orchard Street","Windsor Mill","MD","21244","US","5551454148"
"808787","Ann","Swanson","Ann Swanson","Ann.Swanson@fabrikam.com","808787","112 Front Street","San Lorenzo","CA","94580","US","5555722605"
"551043","Braelyn","Hickman","Braelyn Hickman","Braelyn.Hickman@fabrikam.com","551043","461 Orchard Street","Windsor Mill","MD","21244","US","5553760460"
"623169","Yurem","Dorsey","Yurem Dorsey","Yurem.Dorsey@fabrikam.com","623169","34 Woodland Avenue","Henrico","VA","23228","US","5552907146"
"929175","Emmett","Montgomery","Emmett Montgomery","Emmett.Montgomery@fabrikam.com","929175","994 Fairview Avenue","Lexington","NC","27292","US","5552710770"
"167620","Araceli","Roth","Araceli Roth","Araceli.Roth@fabrikam.com","167620","683 River Street","Opa Locka","FL","33054","US","5553633018"
"856827","Rory","Herrera","Rory Herrera","Rory.Herrera@fabrikam.com","856827","506 College Street","Flushing","NY","11354","US","5559168089"
"771515","Jayce","Sharp","Jayce Sharp","Jayce.Sharp@fabrikam.com","771515","501 Church Street North","Danville","VA","24540","US","5559987973"
"852322","Tia","Oconnell","Tia Oconnell","Tia.Oconnell@fabrikam.com","852322","381 Lake Avenue","Ankeny","IA","50023","US","5558558652"
"676047","Jillian","Glover","Jillian Glover","Jillian.Glover@fabrikam.com","676047","994 Fairview Avenue","Lexington","NC","27292","US","5556228716"
"657681","Faith","Mccarthy","Faith Mccarthy","Faith.Mccarthy@fabrikam.com","657681","222 Bay Street","Lorain","OH","44052","US","5551819787"
"499968","Yadira","Juarez","Yadira Juarez","Yadira.Juarez@fabrikam.com","499968","653 Henry Street","Highland Park","IL","60035","US","5559482761"
"898153","Zaid","Moore","Zaid Moore","Zaid.Moore@fabrikam.com","898153","112 Front Street","San Lorenzo","CA","94580","US","5551944491"
"207466","Jan","Randall","Jan Randall","Jan.Randall@fabrikam.com","207466","34 Woodland Avenue","Henrico","VA","23228","US","5553388848"
"581075","Mara","Ortega","Mara Ortega","Mara.Ortega@fabrikam.com","581075","553 B Street","Freehold","NJ","07728","US","5556049881"
"465673","Zander","Phelps","Zander Phelps","Zander.Phelps@fabrikam.com","465673","506 College Street","Flushing","NY","11354","US","5559911535"
"642069","Fabian","Wilson","Fabian Wilson","Fabian.Wilson@fabrikam.com","642069","859 Riverside Drive","Deland","FL","32720","US","5552204313"
"670458","Roselyn","Gallagher","Roselyn Gallagher","Roselyn.Gallagher@fabrikam.com","670458","859 Riverside Drive","Deland","FL","32720","US","5556170864"
"316364","Trenton","Dudley","Trenton Dudley","Trenton.Dudley@fabrikam.com","316364","322 Grant Avenue","Martinsville","VA","24112","US","5553716320"
"214037","Mckinley","Mueller","Mckinley Mueller","Mckinley.Mueller@fabrikam.com","214037","322 Grant Avenue","Martinsville","VA","24112","US","5557154595"
"543974","Abagail","Hebert","Abagail Hebert","Abagail.Hebert@fabrikam.com","543974","112 Front Street","San Lorenzo","CA","94580","US","5557701435"
"407209","Dane","Herring","Dane Herring","Dane.Herring@fabrikam.com","407209","381 Lake Avenue","Ankeny","IA","50023","US","5558752227"
